NORAD_CAT_ID,OBJECT_NAME,OBJECT_TYPE,EPOCH,MEAN_MOTION,ECCENTRICITY,INCLINATION,RA_OF_ASC_NODE,ARG_OF_PERICENTER,MEAN_ANOMALY,BSTAR,MEAN_MOTION_DOT,MEAN_MOTION_DDOT,TLE_LINE0,TLE_LINE1,TLE_LINE2,SEMIMAJOR_AXIS,PERIOD,APOGEE,PERIGEE,DECAYED
53700.0,STARLINK-4725,PAYLOAD,2022-10-04 06:00:00,15.73225081,0.0001353,53.2141,128.8228,137.6923,257.4668,-0.00052442,-0.00073657,0.0,0 STARLINK-4725,1 53700U 22107A   22277.25001157 -.00073657  00000-0 -52442-3 0  9998,2 53700  53.2141 128.8228 0001353 137.6923 257.4668 15.73225081  4711,6727.824000000001,91.532,350.599,348.778,0.0
53700.0,STARLINK-4725,PAYLOAD,2022-10-04 14:00:01,15.73171025,0.0001568,53.2145,127.1722,142.3893,341.6982,-9.7473e-05,-0.0001426,0.0,0 STARLINK-4725,1 53700U 22107A   22277.58334491 -.00014260  00000-0 -97473-4 0  9993,2 53700  53.2145 127.1722 0001568 142.3893 341.6982 15.73171025  1308,6727.978,91.535,350.898,348.788,0.0
53700.0,STARLINK-4725,PAYLOAD,2022-10-04 22:00:00,15.73151286,0.0001276,53.2145,125.5251,131.1501,81.88600000000002,0.00034984,0.0004866,0.0,0 STARLINK-4725,1 53700U 22107A   22277.91667824  .00048660  00000-0  34984-3 0  9995,2 53700  53.2145 125.5251 0001276 131.1501  81.8860 15.73151286  4819,6728.034000000002,91.536,350.7580000000001,349.041,0.0
53700.0,STARLINK-4725,PAYLOAD,2022-10-05 08:00:01,15.73161468,0.0001523,53.2145,123.4615,136.0151,278.0863,0.00015012,0.00020465,0.0,0 STARLINK-4725,1 53700U 22107A   22278.33334491  .00020465  00000-0  15012-3 0  9997,2 53700  53.2145 123.4615 0001523 136.0151 278.0863 15.73161468  4883,6728.005,91.535,350.895,348.845,0.0
53700.0,STARLINK-4725,PAYLOAD,2022-10-05 14:00:01,15.73183078,0.0001705,53.2147,122.2239,130.6292,260.1877,-5.3461e-05,-8.111e-05,0.0,0 STARLINK-4725,1 53700U 22107A   22278.58335648 -.00008111  00000-0 -53461-4 0  9996,2 53700  53.2147 122.2239 0001705 130.6292 260.1877 15.73183078  1304,6727.943,91.534,350.956,348.661,0.0
53700.0,STARLINK-4725,PAYLOAD,2022-10-05 22:00:00,15.7314196,0.0001585,53.2146,120.5766,121.5827,358.0773,0.00070833,0.00099729,0.0,0 STARLINK-4725,1 53700U 22107A   22278.91667824  .00099729  00000-0  70833-3 0  9991,2 53700  53.2146 120.5766 0001585 121.5827 358.0773 15.73141960  1304,6728.061,91.537,350.992,348.8590000000001,0.0
53700.0,STARLINK-4725,PAYLOAD,2022-10-06 14:00:01,15.7322116,0.0001526,53.2142,117.2755,134.3576,163.1831,0.00012597,0.00017111,0.0,0 STARLINK-4725,1 53700U 22107A   22279.58334491  .00017111  00000-0  12597-3 0  9994,2 53700  53.2142 117.2755 0001526 134.3576 163.1831 15.73221160  1300,6727.835,91.532,350.727,348.673,0.0
53700.0,STARLINK-4725,PAYLOAD,2022-10-06 22:42:55,15.73182897,0.0001207,53.214,115.4806,127.5312,67.7754,0.00036882,0.00051421,0.0,0 STARLINK-4725,1 53700U 22107A   22279.94646991  .00051421  00000-0  36882-3 0  9990,2 53700  53.2140 115.4806 0001207 127.5312  67.7754 15.73182897  1309,6727.944,91.534,350.621,348.997,0.0
53700.0,STARLINK-4725,PAYLOAD,2022-10-07 00:00:00,15.73162417,0.0001171,53.2138,115.2157,129.9982,8.7248,0.00072233,0.00101826,0.0,0 STARLINK-4725,1 53700U 22107A   22280.00001157  .00101826  00000-0  72233-3 0  9993,2 53700  53.2138 115.2157 0001171 129.9982   8.7248 15.73162417  5147,6728.002,91.535,350.655,349.079,0.0
53700.0,STARLINK-4725,PAYLOAD,2022-10-07 14:00:01,15.73187887,0.0001495,53.2142,112.3265,129.30200000000002,75.0572,0.0001623,0.00022206,0.0,0 STARLINK-4725,1 53700U 22107A   22280.58334491  .00022206  00000-0  16230-3 0  9995,2 53700  53.2142 112.3265 0001495 129.3020  75.0572 15.73187887  5231,6727.93,91.534,350.801,348.789,0.0
53700.0,STARLINK-4725,PAYLOAD,2022-10-07 22:00:00,15.73176729,0.0001274,53.2141,110.6789,118.7595,174.5336,0.00032416,0.00045073,0.0,0 STARLINK-4725,1 53700U 22107A   22280.91667824  .00045073  00000-0  32416-3 0  9992,2 53700  53.2141 110.6789 0001274 118.7595 174.5336 15.73176729  1306,6727.962,91.535,350.684,348.969,0.0
53700.0,STARLINK-4725,PAYLOAD,2022-10-08 06:00:00,15.7317424,0.0001496,53.2171,109.0272,115.1847,266.9887,0.00035245,0.00049079,0.0,0 STARLINK-4725,1 53700U 22107A   22281.25001157  .00049079  00000-0  35245-3 0  9994,2 53700  53.2171 109.0272 0001496 115.1847 266.9887 15.73174240  5346,6727.969,91.535,350.84,348.827,0.0
53700.0,STARLINK-4725,PAYLOAD,2022-10-08 14:00:01,15.73240141,0.0001242999999999,53.2137,107.3777,130.0364,341.1222,-0.00019635,-0.00028131,0.0,0 STARLINK-4725,1 53700U 22107A   22281.58334491 -.00028131  00000-0 -19635-3 0  9993,2 53700  53.2137 107.3777 0001243 130.0364 341.1222 15.73240141  5397,6727.781,91.531,350.482,348.809,0.0
53700.0,STARLINK-4725,PAYLOAD,2022-10-08 22:00:00,15.73204545,9.51e-05,53.2135,105.7299,120.2107,79.9186,0.0004191,0.0005862,0.0,0 STARLINK-4725,1 53700U 22107A   22281.91667824  .00058620  00000-0  41910-3 0  9994,2 53700  53.2135 105.7299 0000951 120.2107  79.9186 15.73204545  1307,6727.882,91.533,350.38699999999994,349.107,0.0
53700.0,STARLINK-4725,PAYLOAD,2022-10-09 06:00:00,15.73236684,0.0001135,53.2135,104.0783,121.8982,167.1963,-0.0001269,-0.00018418,0.0,0 STARLINK-4725,1 53700U 22107A   22282.25001157 -.00018418  00000-0 -12690-3 0  9999,2 53700  53.2135 104.0783 0001135 121.8982 167.1963 15.73236684  5496,6727.791,91.531,350.4190000000001,348.892,0.0
53700.0,STARLINK-4725,PAYLOAD,2022-10-09 14:00:01,15.73265298,0.0001335,53.2138,102.4283,116.5073,261.56,-0.00041129,-0.00058106,0.0,0 STARLINK-4725,1 53700U 22107A   22282.58334491 -.00058106  00000-0 -41129-3 0  9992,2 53700  53.2138 102.4283 0001335 116.5073 261.5600 15.73265298  1306,6727.709,91.529,350.472,348.676,0.0
53700.0,STARLINK-4725,PAYLOAD,2022-10-09 22:00:00,15.73200028,0.0001204,53.2139,100.7804,103.4625,3.5946,-0.00010016,-0.00014652,0.0,0 STARLINK-4725,1 53700U 22107A   22282.91667824 -.00014652  00000-0 -10016-3 0  9997,2 53700  53.2139 100.7804 0001204 103.4625   3.5946 15.73200028  1307,6727.895,91.533,350.57,348.95,0.0
53700.0,STARLINK-4725,PAYLOAD,2022-10-10 14:00:01,15.73220275,0.0001084,53.2143,97.4796,112.5361,172.3933,-0.00017033,-0.00024475,0.0,0 STARLINK-4725,1 53700U 22107A   22283.58334491 -.00024475  00000-0 -17033-3 0  9992,2 53700  53.2143  97.4796 0001084 112.5361 172.3933 15.73220275  1305,6727.837,91.532,350.432,348.973,0.0
53700.0,STARLINK-4725,PAYLOAD,2022-10-10 22:00:01,15.73282375,0.000104,53.2157,95.8323,106.6888,267.2447,-0.0034299,-0.00458259,0.0,0 STARLINK-4725,1 53700U 22107A   22283.91668981 -.00458259  00000-0 -34299-2 0  9996,2 53700  53.2157  95.8323 0001040 106.6888 267.2447 15.73282375  5765,6727.66,91.528,350.225,348.826,0.0
53700.0,STARLINK-4725,PAYLOAD,2022-10-11 06:00:00,15.73140973,8.73e-05,53.2144,94.1801,110.5528,352.1611,-0.00017493,-0.00025033,0.0,0 STARLINK-4725,1 53700U 22107A   22284.25001157 -.00025033  00000-0 -17493-3 0  9998,2 53700  53.2144  94.1801 0000873 110.5528 352.1611 15.73140973  5812,6728.063,91.537,350.516,349.341,0.0
53700.0,STARLINK-4725,PAYLOAD,2022-10-11 14:00:01,15.73191566,0.0001659,53.2171,92.5313,106.9632,84.5441,0.00016415,0.00022471,0.0,0 STARLINK-4725,1 53700U 22107A   22284.58334491  .00022471  00000-0  16415-3 0  9998,2 53700  53.2171  92.5313 0001659 106.9632  84.5441 15.73191566  1301,6727.919,91.534,350.9,348.668,0.0
53700.0,STARLINK-4725,PAYLOAD,2022-10-11 22:00:00,15.73128104,7.609999999999999e-05,53.214,90.8831,81.3638,198.9989,0.0010097,0.00143081,0.0,0 STARLINK-4725,1 53700U 22107A   22284.91667824  .00143081  00000-0  10097-2 0  9994,2 53700  53.2140  90.8831 0000761  81.3638 198.9989 15.73128104  1303,6728.1,91.537,350.477,349.45300000000015,0.0
53700.0,STARLINK-4725,PAYLOAD,2022-10-12 06:00:00,15.73230229,7.77e-05,53.2149,89.2315,94.8378,274.4291,-4.8269e-06,-1.297e-05,0.0,0 STARLINK-4725,1 53700U 22107A   22285.25001157 -.00001297  00000-0 -48269-5 0  9992,2 53700  53.2149  89.2315 0000777  94.8378 274.4291 15.73230229  5973,6727.809,91.531,350.19699999999995,349.151,0.0
53700.0,STARLINK-4725,PAYLOAD,2022-10-12 14:00:01,15.73242562,9.79e-05,53.216,87.5824,93.673,4.5534,0.00015391,0.00021074,0.0,0 STARLINK-4725,1 53700U 22107A   22285.58334491  .00021074  00000-0  15391-3 0  9999,2 53700  53.2160  87.5824 0000979  93.6730   4.5534 15.73242562  1303,6727.774,91.531,350.297,348.98,0.0
53700.0,STARLINK-4725,PAYLOAD,2022-10-12 22:00:00,15.73233139,9.4e-05,53.2167,85.9349,82.7634,104.4605,-0.00031693,-0.00044923,0.0,0 STARLINK-4725,1 53700U 22107A   22285.91667824 -.00044923  00000-0 -31693-3 0  9998,2 53700  53.2167  85.9349 0000940  82.7634 104.4605 15.73233139  1303,6727.801,91.531,350.298,349.033,0.0
53700.0,STARLINK-4725,PAYLOAD,2022-10-13 14:00:01,15.73205157,0.0001002,53.2172,82.6342,93.3517,271.756,-1.1548e-05,-2.24e-05,0.0,0 STARLINK-4725,1 53700U 22107A   22286.58334491 -.00002240  00000-0 -11548-4 0  9997,2 53700  53.2172  82.6342 0001002  93.3517 271.7560 15.73205157  1301,6727.88,91.533,350.42,349.071,0.0
53700.0,STARLINK-4725,PAYLOAD,2022-10-13 20:00:01,15.73226639,8.56e-05,53.217,81.3984,74.8646,266.9982,-0.0002597,-0.00036947,0.0,0 STARLINK-4725,1 53700U 22107A   22286.83335648 -.00036947  00000-0 -25970-3 0  9994,2 53700  53.2170  81.3984 0000856  74.8646 266.9982 15.73226639  6228,6727.819,91.532,350.26,349.108,0.0
53700.0,STARLINK-4725,PAYLOAD,2022-10-13 22:00:00,15.73202563,7.54e-05,53.2169,80.986,70.3623,23.6799,2.6457e-05,3.096e-05,0.0,0 STARLINK-4725,1 53700U 22107A   22286.91667824  .00003096  00000-0  26457-4 0  9996,2 53700  53.2169  80.9860 0000754  70.3623  23.6799 15.73202563  1305,6727.888000000001,91.533,350.26,349.246,0.0
53700.0,STARLINK-4725,PAYLOAD,2022-10-14 14:00:01,15.73202618,0.0001341999999999,53.2173,77.6856,80.4824,191.4288,2.4221e-05,2.781e-05,0.0,0 STARLINK-4725,1 53700U 22107A   22287.58334491  .00002781  00000-0  24221-4 0  9998,2 53700  53.2173  77.6856 0001342  80.4824 191.4288 15.73202618  1305,6727.888000000001,91.533,350.656,348.85,0.0
